{"type": "FeatureCollection", "features": [ {"type": "Feature", "properties": {"norad_id": 58662, "name": "TIANMU-1 21", "group": "weather", "lat": 27.819693133994505, "lon": -80.09157067626748, "alt_km": 472.9035682963231, "timestamp": "2025-12-08T13:49:31.435488+00:00", "meta": {"OBJECT_NAME": "TIANMU-1 21", "OBJECT_ID": "2023-208C", "EPOCH": "2025-12-08T06:53:28.649760", "MEAN_MOTION": 15.31405506, "ECCENTRICITY": 0.00059117, "INCLINATION": 97.438, "RA_OF_ASC_NODE": 95.6656, "ARG_OF_PERICENTER": 279.116, "MEAN_ANOMALY": 80.9412, "EPHEMERIS_TYPE": 0, "CLASSIFICATION_TYPE": "U", "NORAD_CAT_ID": 58662, "ELEMENT_SET_NO": 999, "REV_AT_EPOCH": 10831, "BSTAR": 0.00045823062, "MEAN_MOTION_DOT": 0.00013837, "MEAN_MOTION_DDOT": 0}, "tle": {"line1": "1 58662U 23208C   25342.28713715  .00013837  00000+0  45823-3 0  9998", "line2": "2 58662  97.4380  95.6656 0005911 279.1160  80.9412 15.31405506108316"}}, "geometry": {"type": "Point", "coordinates": [-80.09157067626748, 27.819693133994505]}}, {"type": "Feature", "properties": {"norad_id": 58663, "name": "TIANMU-1 22", "group": "weather", "lat": 46.42273090209062, "lon": -78.42477064630131, "alt_km": 481.22496300429975, "timestamp": "2025-12-08T13:49:31.435498+00:00", "meta": {"OBJECT_NAME": "TIANMU-1 22", "OBJECT_ID": "2023-208D", "EPOCH": "2025-12-08T06:57:22.265856", "MEAN_MOTION": 15.27488816, "ECCENTRICITY": 0.00028108, "INCLINATION": 97.4387, "RA_OF_ASC_NODE": 93.3975, "ARG_OF_PERICENTER": 309.2508, "MEAN_ANOMALY": 50.8481, "EPHEMERIS_TYPE": 0, "CLASSIFICATION_TYPE": "U", "NORAD_CAT_ID": 58663, "ELEMENT_SET_NO": 999, "REV_AT_EPOCH": 10815, "BSTAR": 0.00039970442, "MEAN_MOTION_DOT": 0.00010682, "MEAN_MOTION_DDOT": 0}, "tle": {"line1": "1 58663U 23208D   25342.28984104  .00010682  00000+0  39970-3 0  9992", "line2": "2 58663  97.4387  93.3975 0002810 309.2508  50.8481 15.27488816108153"}}, "geometry": {"type": "Point", "coordinates": [-78.42477064630131, 46.42273090209062]}}, {"type": "Feature", "properties": {"norad_id": 58700, "name": "TIANMU-1 15", "group": "weather", "lat": -53.444729302781916, "lon": 174.24399318777603, "alt_km": 495.37774929223997, "timestamp": "2025-12-08T13:49:31.435508+00:00", "meta": {"OBJECT_NAME": "TIANMU-1 15", "OBJECT_ID": "2024-004A", "EPOCH": "2025-12-08T06:11:10.038912", "MEAN_MOTION": 15.24588232, "ECCENTRICITY": 0.00054176, "INCLINATION": 97.4629, "RA_OF_ASC_NODE": 163.7438, "ARG_OF_PERICENTER": 316.9827, "MEAN_ANOMALY": 43.0986, "EPHEMERIS_TYPE": 0, "CLASSIFICATION_TYPE": "U", "NORAD_CAT_ID": 58700, "ELEMENT_SET_NO": 999, "REV_AT_EPOCH": 10666, "BSTAR": 0.00039484839, "MEAN_MOTION_DOT": 9.668e-05, "MEAN_MOTION_DDOT": 0}, "tle": {"line1": "1 58700U 24004A   25342.25775508  .00009668  00000+0  39485-3 0  9995", "line2": "2 58700  97.4629 163.7438 0005417 316.9827  43.0986 15.24588232106663"}}, "geometry": {"type": "Point", "coordinates": [174.24399318777603, -53.444729302781916]}}, {"type": "Feature", "properties": {"norad_id": 58701, "name": "TIANMU-1 16", "group": "weather", "lat": 31.165060757220477, "lon": 158.91089103898415, "alt_km": 490.3792849618212, "timestamp": "2025-12-08T13:49:31.435519+00:00", "meta": {"OBJECT_NAME": "TIANMU-1 16", "OBJECT_ID": "2024-004B", "EPOCH": "2025-12-08T05:48:38.151936", "MEAN_MOTION": 15.24340191, "ECCENTRICITY": 0.00047256, "INCLINATION": 97.4568, "RA_OF_ASC_NODE": 163.122, "ARG_OF_PERICENTER": 315.8139, "MEAN_ANOMALY": 44.2721, "EPHEMERIS_TYPE": 0, "CLASSIFICATION_TYPE": "U", "NORAD_CAT_ID": 58701, "ELEMENT_SET_NO": 999, "REV_AT_EPOCH": 10666, "BSTAR": 0.00038372398, "MEAN_MOTION_DOT": 9.323e-05, "MEAN_MOTION_DDOT": 0}, "tle": {"line1": "1 58701U 24004B   25342.24210824  .00009323  00000+0  38372-3 0  9992", "line2": "2 58701  97.4568 163.1220 0004725 315.8139  44.2721 15.24340191106664"}}, "geometry": {"type": "Point", "coordinates": [158.91089103898415, 31.165060757220477]}}, {"type": "Feature", "properties": {"norad_id": 58702, "name": "TIANMU-1 17", "group": "weather", "lat": 63.59220712122571, "lon": -0.8373034103249314, "alt_km": 488.9254448026404, "timestamp": "2025-12-08T13:49:31.435529+00:00", "meta": {"OBJECT_NAME": "TIANMU-1 17", "OBJECT_ID": "2024-004C", "EPOCH": "2025-12-08T07:01:09.960960", "MEAN_MOTION": 15.24385864, "ECCENTRICITY": 0.00039344, "INCLINATION": 97.4602, "RA_OF_ASC_NODE": 163.5798, "ARG_OF_PERICENTER": 319.6674, "MEAN_ANOMALY": 40.4271, "EPHEMERIS_TYPE": 0, "CLASSIFICATION_TYPE": "U", "NORAD_CAT_ID": 58702, "ELEMENT_SET_NO": 999, "REV_AT_EPOCH": 10666, "BSTAR": 0.00036661917, "MEAN_MOTION_DOT": 8.915e-05, "MEAN_MOTION_DDOT": 0}, "tle": {"line1": "1 58702U 24004C   25342.29247640  .00008915  00000+0  36662-3 0  9990", "line2": "2 58702  97.4602 163.5798 0003934 319.6674  40.4271 15.24385864106669"}}, "geometry": {"type": "Point", "coordinates": [-0.8373034103249314, 63.59220712122571]}}, {"type": "Feature", "properties": {"norad_id": 58703, "name": "TIANMU-1 18", "group": "weather", "lat": -26.86057609975266, "lon": -19.749666301274196, "alt_km": 499.35203478069525, "timestamp": "2025-12-08T13:49:31.435539+00:00", "meta": {"OBJECT_NAME": "TIANMU-1 18", "OBJECT_ID": "2024-004D", "EPOCH": "2025-12-08T06:37:05.356416", "MEAN_MOTION": 15.2437484, "ECCENTRICITY": 0.00033067, "INCLINATION": 97.4619, "RA_OF_ASC_NODE": 163.7575, "ARG_OF_PERICENTER": 320.9283, "MEAN_ANOMALY": 39.1715, "EPHEMERIS_TYPE": 0, "CLASSIFICATION_TYPE": "U", "NORAD_CAT_ID": 58703, "ELEMENT_SET_NO": 999, "REV_AT_EPOCH": 10666, "BSTAR": 0.00036741745, "MEAN_MOTION_DOT": 8.931e-05, "MEAN_MOTION_DDOT": 0}, "tle": {"line1": "1 58703U 24004D   25342.27575644  .00008931  00000+0  36742-3 0  9994", "line2": "2 58703  97.4619 163.7575 0003306 320.9283  39.1715 15.24374840106667"}}, "geometry": {"type": "Point", "coordinates": [-19.749666301274196, -26.86057609975266]}}, {"type": "Feature", "properties": {"norad_id": 58990, "name": "INSAT-3DS", "group": "weather", "lat": -0.0013373058047902694, "lon": 7.059104206784936, "alt_km": 35788.33924106219, "timestamp": "2025-12-08T13:49:31.435550+00:00", "meta": {"OBJECT_NAME": "INSAT-3DS", "OBJECT_ID": "2024-033A", "EPOCH": "2025-12-08T03:43:16.860864", "MEAN_MOTION": 1.0026964, "ECCENTRICITY": 0.00016799, "INCLINATION": 0.0159, "RA_OF_ASC_NODE": 82.2313, "ARG_OF_PERICENTER": 181.5475, "MEAN_ANOMALY": 311.2938, "EPHEMERIS_TYPE": 0, "CLASSIFICATION_TYPE": "U", "NORAD_CAT_ID": 58990, "ELEMENT_SET_NO": 999, "REV_AT_EPOCH": 4515, "BSTAR": 0, "MEAN_MOTION_DOT": -1.53e-06, "MEAN_MOTION_DDOT": 0}, "tle": {"line1": "1 58990U 24033A   25342.15505626 -.00000153  00000+0  00000+0 0  9997", "line2": "2 58990   0.0159  82.2313 0001679 181.5475 311.2938  1.00269640 45151"}}, "geometry": {"type": "Point", "coordinates": [7.059104206784936, -0.0013373058047902694]}}, {"type": "Feature", "properties": {"norad_id": 59051, "name": "METEOR-M2 4", "group": "weather", "lat": 69.60831745977409, "lon": 143.80316302606604, "alt_km": 811.2040632728713, "timestamp": "2025-12-08T13:49:31.435563+00:00", "meta": {"OBJECT_NAME": "METEOR-M2 4", "OBJECT_ID": "2024-039A", "EPOCH": "2025-12-08T06:33:52.833888", "MEAN_MOTION": 14.22400241, "ECCENTRICITY": 0.00072916, "INCLINATION": 98.6762, "RA_OF_ASC_NODE": 299.2526, "ARG_OF_PERICENTER": 11.2616, "MEAN_ANOMALY": 348.8724, "EPHEMERIS_TYPE": 0, "CLASSIFICATION_TYPE": "U", "NORAD_CAT_ID": 59051, "ELEMENT_SET_NO": 999, "REV_AT_EPOCH": 9212, "BSTAR": 6.4854585e-05, "MEAN_MOTION_DOT": 1.01e-06, "MEAN_MOTION_DDOT": 0}, "tle": {"line1": "1 59051U 24039A   25342.27352817  .00000101  00000+0  64855-4 0  9992", "line2": "2 59051  98.6762 299.2526 0007291  11.2616 348.8724 14.22400241 92121"}}, "geometry": {"type": "Point", "coordinates": [143.80316302606604, 69.60831745977409]}}, {"type": "Feature", "properties": {"norad_id": 60133, "name": "GOES 19", "group": "weather", "lat": -0.0025881054045470094, "lon": -150.24161531684408, "alt_km": 35786.512535358, "timestamp": "2025-12-08T13:49:31.435575+00:00", "meta": {"OBJECT_NAME": "GOES 19", "OBJECT_ID": "2024-119A", "EPOCH": "2025-12-08T04:41:11.313312", "MEAN_MOTION": 1.00271413, "ECCENTRICITY": 0.00013528, "INCLINATION": 0.0119, "RA_OF_ASC_NODE": 93.8694, "ARG_OF_PERICENTER": 209.0539, "MEAN_ANOMALY": 129.3967, "EPHEMERIS_TYPE": 0, "CLASSIFICATION_TYPE": "U", "NORAD_CAT_ID": 60133, "ELEMENT_SET_NO": 999, "REV_AT_EPOCH": 504, "BSTAR": 0, "MEAN_MOTION_DOT": -2.46e-06, "MEAN_MOTION_DDOT": 0}, "tle": {"line1": "1 60133U 24119A   25342.19526983 -.00000246  00000+0  00000+0 0  9990", "line2": "2 60133   0.0119  93.8694 0001352 209.0539 129.3967  1.00271413  5049"}}, "geometry": {"type": "Point", "coordinates": [-150.24161531684408, -0.0025881054045470094]}}, {"type": "Feature", "properties": {"norad_id": 65815, "name": "FENGYUN 3H", "group": "weather", "lat": 24.28694757348563, "lon": -81.68541150090373, "alt_km": 824.7628009193177, "timestamp": "2025-12-08T13:49:31.435586+00:00", "meta": {"OBJECT_NAME": "FENGYUN 3H", "OBJECT_ID": "2025-219A", "EPOCH": "2025-12-08T06:56:42.482112", "MEAN_MOTION": 14.19902868, "ECCENTRICITY": 6.088e-05, "INCLINATION": 98.6578, "RA_OF_ASC_NODE": 281.9766, "ARG_OF_PERICENTER": 82.1782, "MEAN_ANOMALY": 277.9464, "EPHEMERIS_TYPE": 0, "CLASSIFICATION_TYPE": "U", "NORAD_CAT_ID": 65815, "ELEMENT_SET_NO": 999, "REV_AT_EPOCH": 1029, "BSTAR": 0.0001251055, "MEAN_MOTION_DOT": 2.22e-06, "MEAN_MOTION_DDOT": 0}, "tle": {"line1": "1 65815U 25219A   25342.28938058  .00000222  00000+0  12511-3 0  9991", "line2": "2 65815  98.6578 281.9766 0000608  82.1782 277.9464 14.19902868 10290"}}, "geometry": {"type": "Point", "coordinates": [-81.68541150090373, 24.28694757348563]}}]}